[{"OBJECT_NAME":"ONEWEB-0113","OBJECT_ID":"2021-025J","EPOCH":"2025-12-09T11:29:39.710112","MEAN_MOTION":13.13985445,"ECCENTRICITY":0.00018362,"INCLINATION":87.8984,"RA_OF_ASC_NODE":357.8696,"ARG_OF_PERICENTER":99.5593,"MEAN_ANOMALY":260.5744,"EPHEMERIS_TYPE":0,"CLASSIFICATION_TYPE":"U","NORAD_CAT_ID":48050,"ELEMENT_SET_NO":999,"REV_AT_EPOCH":22869,"BSTAR":8.6327888e-5,"MEAN_MOTION_DOT":4.5e-7,"MEAN_MOTION_DDOT":0},{"OBJECT_NAME":"ONEWEB-0112","OBJECT_ID":"2021-025K","EPOCH":"2025-12-09T12:05:16.463328","MEAN_MOTION":13.13470567,"ECCENTRICITY":0.00016706,"INCLINATION":87.8988,"RA_OF_ASC_NODE":357.899,"ARG_OF_PERICENTER":93.5475,"MEAN_ANOMALY":266.5845,"EPHEMERIS_TYPE":0,"CLASSIFICATION_TYPE":"U","NORAD_CAT_ID":48051,"ELEMENT_SET_NO":999,"REV_AT_EPOCH":22869,"BSTAR":0.00075925192,"MEAN_MOTION_DOT":2.9e-6,"MEAN_MOTION_DDOT":0},{"OBJECT_NAME":"ONEWEB-0156","OBJECT_ID":"2021-025L","EPOCH":"2025-12-09T12:17:27.435840","MEAN_MOTION":13.134704,"ECCENTRICITY":0.00015938,"INCLINATION":87.8988,"RA_OF_ASC_NODE":357.9088,"ARG_OF_PERICENTER":92.0704,"MEAN_ANOMALY":268.0608,"EPHEMERIS_TYPE":0,"CLASSIFICATION_TYPE":"U","NORAD_CAT_ID":48052,"ELEMENT_SET_NO":999,"REV_AT_EPOCH":22867,"BSTAR":9.262864e-5,"MEAN_MOTION_DOT":4.7e-7,"MEAN_MOTION_DDOT":0},{"OBJECT_NAME":"ONEWEB-0161","OBJECT_ID":"2021-025M","EPOCH":"2025-12-09T11:40:54.029280","MEAN_MOTION":13.13470667,"ECCENTRICITY":0.0001526,"INCLINATION":87.8979,"RA_OF_ASC_NODE":357.9295,"ARG_OF_PERICENTER":90.5927,"MEAN_ANOMALY":269.5377,"EPHEMERIS_TYPE":0,"CLASSIFICATION_TYPE":"U","NORAD_CAT_ID":48053,"ELEMENT_SET_NO":999,"REV_AT_EPOCH":22860,"BSTAR":0.00078239516,"MEAN_MOTION_DOT":2.98e-6,"MEAN_MOTION_DDOT":0},{"OBJECT_NAME":"ONEWEB-0158","OBJECT_ID":"2021-025N","EPOCH":"2025-12-09T10:42:23.393376","MEAN_MOTION":13.13469835,"ECCENTRICITY":0.0002066,"INCLINATION":87.8985,"RA_OF_ASC_NODE":357.9215,"ARG_OF_PERICENTER":90.1202,"MEAN_ANOMALY":270.0164,"EPHEMERIS_TYPE":0,"CLASSIFICATION_TYPE":"U","NORAD_CAT_ID":48054,"ELEMENT_SET_NO":999,"REV_AT_EPOCH":22872,"BSTAR":-0.00058184043,"MEAN_MOTION_DOT":-2.0e-6,"MEAN_MOTION_DDOT":0},{"OBJECT_NAME":"ONEWEB-0157","OBJECT_ID":"2021-025P","EPOCH":"2025-12-09T11:18:57.392640","MEAN_MOTION":13.13470693,"ECCENTRICITY":0.00014063,"INCLINATION":87.8987,"RA_OF_ASC_NODE":357.9228,"ARG_OF_PERICENTER":83.1792,"MEAN_ANOMALY":276.9497,"EPHEMERIS_TYPE":0,"CLASSIFICATION_TYPE":"U","NORAD_CAT_ID":48055,"ELEMENT_SET_NO":999,"REV_AT_EPOCH":22866,"BSTAR":-0.00014226199,"MEAN_MOTION_DOT":-3.9e-7,"MEAN_MOTION_DDOT":0},{"OBJECT_NAME":"ONEWEB-0162","OBJECT_ID":"2021-025Q","EPOCH":"2025-12-09T12:34:18.537024","MEAN_MOTION":13.13472168,"ECCENTRICITY":0.00016157,"INCLINATION":87.8987,"RA_OF_ASC_NODE":357.9144,"ARG_OF_PERICENTER":96.1997,"MEAN_ANOMALY":263.9316,"EPHEMERIS_TYPE":0,"CLASSIFICATION_TYPE":"U","NORAD_CAT_ID":48056,"ELEMENT_SET_NO":999,"REV_AT_EPOCH":22864,"BSTAR":-0.00044276294,"MEAN_MOTION_DOT":-1.49e-6,"MEAN_MOTION_DDOT":0},{"OBJECT_NAME":"ONEWEB-0155","OBJECT_ID":"2021-025R","EPOCH":"2025-12-09T10:54:33.532992","MEAN_MOTION":13.13469793,"ECCENTRICITY":0.00016982,"INCLINATION":87.8984,"RA_OF_ASC_NODE":357.933,"ARG_OF_PERICENTER":85.8981,"MEAN_ANOMALY":274.2342,"EPHEMERIS_TYPE":0,"CLASSIFICATION_TYPE":"U","NORAD_CAT_ID":48057,"ELEMENT_SET_NO":999,"REV_AT_EPOCH":22877,"BSTAR":-0.0014878916,"MEAN_MOTION_DOT":-5.31e-6,"MEAN_MOTION_DDOT":0},{"OBJECT_NAME":"ONEWEB-0149","OBJECT_ID":"2021-025S","EPOCH":"2025-12-09T11:26:15.600480","MEAN_MOTION":13.13472039,"ECCENTRICITY":0.00016209,"INCLINATION":87.8984,"RA_OF_ASC_NODE":357.9224,"ARG_OF_PERICENTER":98.7819,"MEAN_ANOMALY":261.3494,"EPHEMERIS_TYPE":0,"CLASSIFICATION_TYPE":"U","NORAD_CAT_ID":48058,"ELEMENT_SET_NO":999,"REV_AT_EPOCH":22858,"BSTAR":9.3913957e-5,"MEAN_MOTION_DOT":4.7e-7,"MEAN_MOTION_DDOT":0},{"OBJECT_NAME":"ONEWEB-0148","OBJECT_ID":"2021-025T","EPOCH":"2025-12-09T12:22:20.091648","MEAN_MOTION":13.1347027,"ECCENTRICITY":0.00013196,"INCLINATION":87.898,"RA_OF_ASC_NODE":357.9345,"ARG_OF_PERICENTER":109.3588,"MEAN_ANOMALY":250.7684,"EPHEMERIS_TYPE":0,"CLASSIFICATION_TYPE":"U","NORAD_CAT_ID":48059,"ELEMENT_SET_NO":999,"REV_AT_EPOCH":22871,"BSTAR":5.2418469e-5,"MEAN_MOTION_DOT":3.2e-7,"MEAN_MOTION_DDOT":0},{"OBJECT_NAME":"ONEWEB-0160","OBJECT_ID":"2021-025U","EPOCH":"2025-12-09T10:57:00.894240","MEAN_MOTION":13.13470724,"ECCENTRICITY":0.00025285,"INCLINATION":87.8979,"RA_OF_ASC_NODE":357.9437,"ARG_OF_PERICENTER":98.1929,"MEAN_ANOMALY":261.9487,"EPHEMERIS_TYPE":0,"CLASSIFICATION_TYPE":"U","NORAD_CAT_ID":48060,"ELEMENT_SET_NO":999,"REV_AT_EPOCH":22865,"BSTAR":-0.00069546075,"MEAN_MOTION_DOT":-2.41e-6,"MEAN_MOTION_DDOT":0},{"OBJECT_NAME":"ONEWEB-0163","OBJECT_ID":"2021-025V","EPOCH":"2025-12-09T10:35:04.108128","MEAN_MOTION":13.13468001,"ECCENTRICITY":0.00014978,"INCLINATION":87.8987,"RA_OF_ASC_NODE":357.9328,"ARG_OF_PERICENTER":84.4322,"MEAN_ANOMALY":275.6978,"EPHEMERIS_TYPE":0,"CLASSIFICATION_TYPE":"U","NORAD_CAT_ID":48061,"ELEMENT_SET_NO":999,"REV_AT_EPOCH":22877,"BSTAR":-0.00010748889,"MEAN_MOTION_DOT":-2.7e-7,"MEAN_MOTION_DDOT":0},{"OBJECT_NAME":"ONEWEB-0159","OBJECT_ID":"2021-025W","EPOCH":"2025-12-09T12:12:35.331264","MEAN_MOTION":13.13470618,"ECCENTRICITY":0.00014999,"INCLINATION":87.8988,"RA_OF_ASC_NODE":357.9031,"ARG_OF_PERICENTER":91.628,"MEAN_ANOMALY":268.5021,"EPHEMERIS_TYPE":0,"CLASSIFICATION_TYPE":"U","NORAD_CAT_ID":48062,"ELEMENT_SET_NO":999,"REV_AT_EPOCH":22870,"BSTAR":0.00051895447,"MEAN_MOTION_DOT":2.02e-6,"MEAN_MOTION_DDOT":0},{"OBJECT_NAME":"ONEWEB-0164","OBJECT_ID":"2021-025X","EPOCH":"2025-12-09T11:45:46.066464","MEAN_MOTION":13.13471487,"ECCENTRICITY":0.00018045,"INCLINATION":87.8985,"RA_OF_ASC_NODE":357.9137,"ARG_OF_PERICENTER":91.6794,"MEAN_ANOMALY":268.4542,"EPHEMERIS_TYPE":0,"CLASSIFICATION_TYPE":"U","NORAD_CAT_ID":48063,"ELEMENT_SET_NO":999,"REV_AT_EPOCH":22868,"BSTAR":0.00082076031,"MEAN_MOTION_DOT":3.12e-6,"MEAN_MOTION_DDOT":0},{"OBJECT_NAME":"ONEWEB-0167","OBJECT_ID":"2021-025Y","EPOCH":"2025-12-09T12:26:00.129120","MEAN_MOTION":13.13468314,"ECCENTRICITY":0.00018043,"INCLINATION":87.8977,"RA_OF_ASC_NODE":357.9359,"ARG_OF_PERICENTER":68.3931,"MEAN_ANOMALY":291.739,"EPHEMERIS_TYPE":0,"CLASSIFICATION_TYPE":"U","NORAD_CAT_ID":48064,"ELEMENT_SET_NO":999,"REV_AT_EPOCH":22867,"BSTAR":-0.00014821981,"MEAN_MOTION_DOT":-4.1e-7,"MEAN_MOTION_DDOT":0},{"OBJECT_NAME":"ONEWEB-0166","OBJECT_ID":"2021-025Z","EPOCH":"2025-12-09T11:09:11.953152","MEAN_MOTION":13.13471624,"ECCENTRICITY":0.00015859,"INCLINATION":87.8986,"RA_OF_ASC_NODE":357.9027,"ARG_OF_PERICENTER":95.9212,"MEAN_ANOMALY":264.2098,"EPHEMERIS_TYPE":0,"CLASSIFICATION_TYPE":"U","NORAD_CAT_ID":48065,"ELEMENT_SET_NO":999,"REV_AT_EPOCH":22874,"BSTAR":-0.00064971839,"MEAN_MOTION_DOT":-2.25e-6,"MEAN_MOTION_DDOT":0}]
