ONEWEB-0113             
1 48050U 21025J   25343.47893183  .00000045  00000+0  86328-4 0  9996
2 48050  87.8984 357.8696 0001836  99.5593 260.5744 13.13985445228693
ONEWEB-0112             
1 48051U 21025K   25343.50366277  .00000290  00000+0  75925-3 0  9992
2 48051  87.8988 357.8990 0001670  93.5475 266.5845 13.13470567228696
ONEWEB-0156             
1 48052U 21025L   25343.51212310  .00000047  00000+0  92629-4 0  9993
2 48052  87.8988 357.9088 0001593  92.0704 268.0608 13.13470400228677
ONEWEB-0161             
1 48053U 21025M   25343.48673645  .00000298  00000+0  78240-3 0  9992
2 48053  87.8979 357.9295 0001526  90.5927 269.5377 13.13470667228601
ONEWEB-0158             
1 48054U 21025N   25343.44610409 -.00000200  00000+0 -58184-3 0  9998
2 48054  87.8985 357.9215 0002066  90.1202 270.0164 13.13469835228722
ONEWEB-0157             
1 48055U 21025P   25343.47149760 -.00000039  00000+0 -14226-3 0  9998
2 48055  87.8987 357.9228 0001406  83.1792 276.9497 13.13470693228663
ONEWEB-0162             
1 48056U 21025Q   25343.52382566 -.00000149  00000+0 -44276-3 0  9998
2 48056  87.8987 357.9144 0001615  96.1997 263.9316 13.13472168228647
ONEWEB-0155             
1 48057U 21025R   25343.45455478 -.00000531  00000+0 -14879-2 0  9994
2 48057  87.8984 357.9330 0001698  85.8981 274.2342 13.13469793228779
ONEWEB-0149             
1 48058U 21025S   25343.47656945  .00000047  00000+0  93914-4 0  9998
2 48058  87.8984 357.9224 0001620  98.7819 261.3494 13.13472039228581
ONEWEB-0148             
1 48059U 21025T   25343.51551032  .00000032  00000+0  52418-4 0  9993
2 48059  87.8980 357.9345 0001319 109.3588 250.7684 13.13470270228712
ONEWEB-0160             
1 48060U 21025U   25343.45626035 -.00000241  00000+0 -69546-3 0  9997
2 48060  87.8979 357.9437 0002528  98.1929 261.9487 13.13470724228653
ONEWEB-0163             
1 48061U 21025V   25343.44101977 -.00000027  00000+0 -10749-3 0  9993
2 48061  87.8987 357.9328 0001497  84.4322 275.6978 13.13468001228776
ONEWEB-0159             
1 48062U 21025W   25343.50874226  .00000202  00000+0  51895-3 0  9995
2 48062  87.8988 357.9031 0001499  91.6280 268.5021 13.13470618228704
ONEWEB-0164             
1 48063U 21025X   25343.49011651  .00000312  00000+0  82076-3 0  9996
2 48063  87.8985 357.9137 0001804  91.6794 268.4542 13.13471487228688
ONEWEB-0167             
1 48064U 21025Y   25343.51805705 -.00000041  00000+0 -14822-3 0  9996
2 48064  87.8977 357.9359 0001804  68.3931 291.7390 13.13468314228674
ONEWEB-0166             
1 48065U 21025Z   25343.46472168 -.00000225  00000+0 -64972-3 0  9999
2 48065  87.8986 357.9027 0001585  95.9212 264.2098 13.13471624228747
